start=new Date('2023-04-22T00:00:00.000Z').valueOf();
sats=[{"TLE_LINE2":"2 53177  53.2165 185.2503 0001259  94.5993 265.5143 15.08841588 42760","PERIAPSIS":"538.870","OBJECT_ID":"2022-083AX","EPHEMERIS_TYPE":"0","REV_AT_EPOCH":"4276","OBJECT_TYPE":"PAYLOAD","OBJECT_NAME":"STARLINK-4298","DECAY_DATE":null,"MEAN_ELEMENT_THEORY":"SGP4","RCS_SIZE":"LARGE","LAUNCH_DATE":"2022-07-17","CENTER_NAME":"EARTH","MEAN_MOTION_DOT":"0.00002266","PERIOD":"95.437","INCLINATION":"53.2165","ECCENTRICITY":"0.00012590","ARG_OF_PERICENTER":"94.5993","CLASSIFICATION_TYPE":"U","TLE_LINE1":"1 53177U 22083AX  23111.90418807  .00002266  00000-0  16043-3 0  9996","GP_ID":"230529072","COUNTRY_CODE":"US","SEMIMAJOR_AXIS":"6917.876","TIME_SYSTEM":"UTC","FILE":"3891716","APOAPSIS":"540.611","MEAN_MOTION_DDOT":"0.0000000000000","MEAN_MOTION":"15.08841588","EPOCH":"2023-04-21T21:42:01.849248","NORAD_CAT_ID":"53177","BSTAR":"0.00016043000000","ELEMENT_SET_NO":"999","SITE":"AFETR","REF_FRAME":"TEME","MEAN_ANOMALY":"265.5143","RA_OF_ASC_NODE":"185.2503"},{"RA_OF_ASC_NODE":"210.7388","MEAN_ANOMALY":"266.0641","REF_FRAME":"TEME","SITE":"AFETR","ELEMENT_SET_NO":"999","BSTAR":"0.00174300000000","NORAD_CAT_ID":"53178","EPOCH":"2023-04-21T19:07:41.322720","MEAN_MOTION":"15.08850752","MEAN_MOTION_DDOT":"0.0000000000000","APOAPSIS":"540.434","FILE":"3891716","TIME_SYSTEM":"UTC","GP_ID":"230529822","TLE_LINE1":"1 53178U 22083AY  23111.79700605  .00027569  00000-0  17430-2 0  9997","COUNTRY_CODE":"US","SEMIMAJOR_AXIS":"6917.848","CLASSIFICATION_TYPE":"U","ARG_OF_PERICENTER":"94.0470","INCLINATION":"53.2138","ECCENTRICITY":"0.00010430","MEAN_MOTION_DOT":"0.00027569","PERIOD":"95.437","CENTER_NAME":"EARTH","LAUNCH_DATE":"2022-07-17","RCS_SIZE":"LARGE","DECAY_DATE":null,"MEAN_ELEMENT_THEORY":"SGP4","OBJECT_NAME":"STARLINK-4280","OBJECT_TYPE":"PAYLOAD","REV_AT_EPOCH":"4239","EPHEMERIS_TYPE":"0","OBJECT_ID":"2022-083AY","PERIAPSIS":"538.991","TLE_LINE2":"2 53178  53.2138 210.7388 0001043  94.0470 266.0641 15.08850752 42393"},{"FILE":"3891604","APOAPSIS":"540.791","MEAN_MOTION_DDOT":"0.0000000000000","TIME_SYSTEM":"UTC","MEAN_MOTION":"15.08834463","SITE":"AFETR","REF_FRAME":"TEME","EPOCH":"2023-04-21T20:32:24.707328","NORAD_CAT_ID":"53179","BSTAR":"0.00012065000000","ELEMENT_SET_NO":"999","RA_OF_ASC_NODE":"170.0754","MEAN_ANOMALY":"267.8834","OBJECT_ID":"2022-083AZ","TLE_LINE2":"2 53179  53.2160 170.0754 0001487  92.2329 267.8834 15.08834463 43619","PERIAPSIS":"538.734","OBJECT_TYPE":"PAYLOAD","OBJECT_NAME":"STARLINK-4276","DECAY_DATE":null,"MEAN_ELEMENT_THEORY":"SGP4","EPHEMERIS_TYPE":"0","REV_AT_EPOCH":"4361","LAUNCH_DATE":"2022-07-17","CENTER_NAME":"EARTH","MEAN_MOTION_DOT":"0.00001632","PERIOD":"95.438","RCS_SIZE":"LARGE","CLASSIFICATION_TYPE":"U","TLE_LINE1":"1 53179U 22083AZ  23111.85584152  .00001632  00000-0  12065-3 0  9995","GP_ID":"230503159","SEMIMAJOR_AXIS":"6917.897","COUNTRY_CODE":"US","ECCENTRICITY":"0.00014870","INCLINATION":"53.2160","ARG_OF_PERICENTER":"92.2329"},{"MEAN_MOTION":"15.08831782","TIME_SYSTEM":"UTC","MEAN_MOTION_DDOT":"0.0000000000000","FILE":"3891529","APOAPSIS":"540.732","MEAN_ANOMALY":"270.1087","RA_OF_ASC_NODE":"171.6811","BSTAR":"-0.00004262600000","ELEMENT_SET_NO":"999","EPOCH":"2023-04-21T13:03:23.908608","NORAD_CAT_ID":"53180","SITE":"AFETR","REF_FRAME":"TEME","REV_AT_EPOCH":"4292","EPHEMERIS_TYPE":"0","MEAN_ELEMENT_THEORY":"SGP4","DECAY_DATE":null,"OBJECT_NAME":"STARLINK-4258","OBJECT_TYPE":"PAYLOAD","PERIAPSIS":"538.809","TLE_LINE2":"2 53180  53.2156 171.6811 0001390  90.0065 270.1087 15.08831782 42924","OBJECT_ID":"2022-083BA","INCLINATION":"53.2156","ECCENTRICITY":"0.00013900","ARG_OF_PERICENTER":"90.0065","TLE_LINE1":"1 53180U 22083BA  23111.54402672 -.00000966  00000-0 -42626-4 0  9997","SEMIMAJOR_AXIS":"6917.906","GP_ID":"230498181","COUNTRY_CODE":"US","CLASSIFICATION_TYPE":"U","RCS_SIZE":"LARGE","PERIOD":"95.438","MEAN_MOTION_DOT":"-0.00000966","CENTER_NAME":"EARTH","LAUNCH_DATE":"2022-07-17"},{"ARG_OF_PERICENTER":"101.3104","INCLINATION":"53.2166","ECCENTRICITY":"0.00012870","CLASSIFICATION_TYPE":"U","GP_ID":"230498920","TLE_LINE1":"1 53181U 22083BB  23111.54306676  .00000606  00000-0  56176-4 0  9999","COUNTRY_CODE":"US","SEMIMAJOR_AXIS":"6917.884","RCS_SIZE":"LARGE","LAUNCH_DATE":"2022-07-17","CENTER_NAME":"EARTH","MEAN_MOTION_DOT":"0.00000606","PERIOD":"95.438","EPHEMERIS_TYPE":"0","REV_AT_EPOCH":"4292","OBJECT_NAME":"STARLINK-4273","OBJECT_TYPE":"PAYLOAD","DECAY_DATE":null,"MEAN_ELEMENT_THEORY":"SGP4","TLE_LINE2":"2 53181  53.2166 171.6758 0001287 101.3104 258.8033 15.08838710 42923","PERIAPSIS":"538.859","OBJECT_ID":"2022-083BB","MEAN_ANOMALY":"258.8033","RA_OF_ASC_NODE":"171.6758","NORAD_CAT_ID":"53181","EPOCH":"2023-04-21T13:02:00.968064","ELEMENT_SET_NO":"999","BSTAR":"0.00005617600000","REF_FRAME":"TEME","SITE":"AFETR","MEAN_MOTION":"15.08838710","TIME_SYSTEM":"UTC","APOAPSIS":"540.640","FILE":"3891529","MEAN_MOTION_DDOT":"0.0000000000000"},{"RCS_SIZE":"LARGE","PERIOD":"95.438","MEAN_MOTION_DOT":"-0.00000418","LAUNCH_DATE":"2022-07-17","CENTER_NAME":"EARTH","INCLINATION":"53.2155","ECCENTRICITY":"0.00013600","ARG_OF_PERICENTER":"90.7689","COUNTRY_CODE":"US","TLE_LINE1":"1 53182U 22083BC  23111.90050876 -.00000418  00000-0 -81631-5 0  9996","GP_ID":"230529322","SEMIMAJOR_AXIS":"6917.885","CLASSIFICATION_TYPE":"U","PERIAPSIS":"538.810","TLE_LINE2":"2 53182  53.2155 185.2662 0001360  90.7689 269.3459 15.08838353 42762","OBJECT_ID":"2022-083BC","REV_AT_EPOCH":"4276","EPHEMERIS_TYPE":"0","MEAN_ELEMENT_THEORY":"SGP4","DECAY_DATE":null,"OBJECT_TYPE":"PAYLOAD","OBJECT_NAME":"STARLINK-4278","ELEMENT_SET_NO":"999","BSTAR":"-0.00000816310000","NORAD_CAT_ID":"53182","EPOCH":"2023-04-21T21:36:43.956864","REF_FRAME":"TEME","SITE":"AFETR","MEAN_ANOMALY":"269.3459","RA_OF_ASC_NODE":"185.2662","TIME_SYSTEM":"UTC","MEAN_MOTION_DDOT":"0.0000000000000","APOAPSIS":"540.691","FILE":"3891716","MEAN_MOTION":"15.08838353"},{"ECCENTRICITY":"0.00013780","INCLINATION":"53.2155","ARG_OF_PERICENTER":"82.1476","GP_ID":"230529574","TLE_LINE1":"1 53183U 22083BD  23112.00002315  .00055329  00000-0  33181-2 0  9997","COUNTRY_CODE":"US","SEMIMAJOR_AXIS":"6912.977","CLASSIFICATION_TYPE":"U","RCS_SIZE":"LARGE","PERIOD":"95.336","MEAN_MOTION_DOT":"0.00055329","LAUNCH_DATE":"2022-07-17","CENTER_NAME":"EARTH","REV_AT_EPOCH":"130","EPHEMERIS_TYPE":"0","DECAY_DATE":null,"MEAN_ELEMENT_THEORY":"SGP4","OBJECT_NAME":"STARLINK-4268","OBJECT_TYPE":"PAYLOAD","PERIAPSIS":"533.890","TLE_LINE2":"2 53183  53.2155 174.8000 0001378  82.1476  23.2392 15.10445464  1309","OBJECT_ID":"2022-083BD","MEAN_ANOMALY":"23.2392","RA_OF_ASC_NODE":"174.8000","BSTAR":"0.00331810000000","ELEMENT_SET_NO":"999","EPOCH":"2023-04-22T00:00:02.000160","NORAD_CAT_ID":"53183","SITE":"AFETR","REF_FRAME":"TEME","MEAN_MOTION":"15.10445464","TIME_SYSTEM":"UTC","MEAN_MOTION_DDOT":"0.0000000000000","FILE":"3891716","APOAPSIS":"535.795"},{"EPOCH":"2023-04-21T20:27:06.771744","NORAD_CAT_ID":"53184","BSTAR":"0.00006949100000","ELEMENT_SET_NO":"999","SITE":"AFETR","REF_FRAME":"TEME","MEAN_ANOMALY":"261.8305","RA_OF_ASC_NODE":"170.0764","TIME_SYSTEM":"UTC","FILE":"3891595","APOAPSIS":"540.639","MEAN_MOTION_DDOT":"0.0000000000000","MEAN_MOTION":"15.08837566","RCS_SIZE":"LARGE","LAUNCH_DATE":"2022-07-17","CENTER_NAME":"EARTH","MEAN_MOTION_DOT":"0.00000818","PERIOD":"95.438","INCLINATION":"53.2168","ECCENTRICITY":"0.00012810","ARG_OF_PERICENTER":"98.2832","CLASSIFICATION_TYPE":"U","GP_ID":"230503054","TLE_LINE1":"1 53184U 22083BE  23111.85216171  .00000818  00000-0  69491-4 0  9995","COUNTRY_CODE":"US","SEMIMAJOR_AXIS":"6917.888","TLE_LINE2":"2 53184  53.2168 170.0764 0001281  98.2832 261.8305 15.08837566 43615","PERIAPSIS":"538.867","OBJECT_ID":"2022-083BE","EPHEMERIS_TYPE":"0","REV_AT_EPOCH":"4361","OBJECT_NAME":"STARLINK-4257","OBJECT_TYPE":"PAYLOAD","DECAY_DATE":null,"MEAN_ELEMENT_THEORY":"SGP4"},{"MEAN_MOTION":"15.01257918","TIME_SYSTEM":"UTC","MEAN_MOTION_DDOT":"0.0000000000000","FILE":"3891529","APOAPSIS":"565.084","MEAN_ANOMALY":"127.3227","RA_OF_ASC_NODE":"173.2838","BSTAR":"0.00000524650000","ELEMENT_SET_NO":"999","EPOCH":"2023-04-21T09:46:02.538048","NORAD_CAT_ID":"53189","SITE":"AFWTR","REF_FRAME":"TEME","REV_AT_EPOCH":"4196","EPHEMERIS_TYPE":"0","DECAY_DATE":null,"MEAN_ELEMENT_THEORY":"SGP4","OBJECT_NAME":"STARLINK-4391","OBJECT_TYPE":"PAYLOAD","PERIAPSIS":"560.953","TLE_LINE2":"2 53189  97.6545 173.2838 0002976 232.7726 127.3227 15.01257918 41962","OBJECT_ID":"2022-084A","ARG_OF_PERICENTER":"232.7726","INCLINATION":"97.6545","ECCENTRICITY":"0.00029760","TLE_LINE1":"1 53189U 22084A   23111.40697382  .00000008  00000-0  52465-5 0  9994","SEMIMAJOR_AXIS":"6941.153","GP_ID":"230498421","COUNTRY_CODE":"US","CLASSIFICATION_TYPE":"U","RCS_SIZE":"LARGE","MEAN_MOTION_DOT":"0.00000008","PERIOD":"95.920","LAUNCH_DATE":"2022-07-22","CENTER_NAME":"EARTH"},{"RA_OF_ASC_NODE":"173.7837","MEAN_ANOMALY":"257.1541","REF_FRAME":"TEME","SITE":"AFWTR","ELEMENT_SET_NO":"999","BSTAR":"0.00015808000000","NORAD_CAT_ID":"53190","EPOCH":"2023-04-21T21:40:55.049088","MEAN_MOTION":"15.01265510","MEAN_MOTION_DDOT":"0.0000000000000","APOAPSIS":"564.294","FILE":"3891716","TIME_SYSTEM":"UTC","SEMIMAJOR_AXIS":"6941.130","TLE_LINE1":"1 53190U 22084B   23111.90341492  .00001972  00000-0  15808-3 0  9998","GP_ID":"230529823","COUNTRY_CODE":"US","CLASSIFICATION_TYPE":"U","INCLINATION":"97.6518","ECCENTRICITY":"0.00018720","ARG_OF_PERICENTER":"102.9892","PERIOD":"95.919","MEAN_MOTION_DOT":"0.00001972","LAUNCH_DATE":"2022-07-22","CENTER_NAME":"EARTH","RCS_SIZE":"LARGE","MEAN_ELEMENT_THEORY":"SGP4","DECAY_DATE":null,"OBJECT_NAME":"STARLINK-4332","OBJECT_TYPE":"PAYLOAD","REV_AT_EPOCH":"4203","EPHEMERIS_TYPE":"0","OBJECT_ID":"2022-084B","PERIAPSIS":"561.695","TLE_LINE2":"2 53190  97.6518 173.7837 0001872 102.9892 257.1541 15.01265510 42031"}];
